start=new Date('2022-05-08T00:00:00.000Z').valueOf();
sats=[{"TLE_LINE1":"1 47844U 21018BK  22127.78696356  .00000440  00000-0  48448-4 0  9993","SEMIMAJOR_AXIS":"6925.370","EPHEMERIS_TYPE":"0","BSTAR":"0.00004844800000","REV_AT_EPOCH":"6496","RCS_SIZE":"LARGE","OBJECT_TYPE":"PAYLOAD","ARG_OF_PERICENTER":"60.0777","PERIOD":"95.593","TIME_SYSTEM":"UTC","EPOCH":"2022-05-07T18:53:13.651584","CENTER_NAME":"EARTH","FILE":"3434270","OBJECT_ID":"2021-018BK","COUNTRY_CODE":"US","ECCENTRICITY":"0.00017010","MEAN_ANOMALY":"300.0381","MEAN_MOTION_DOT":"0.00000440","RA_OF_ASC_NODE":"65.0161","INCLINATION":"53.0571","TLE_LINE2":"2 47844  53.0571  65.0161 0001701  60.0777 300.0381 15.06393034 64969","MEAN_MOTION_DDOT":"0.0000000000000","MEAN_ELEMENT_THEORY":"SGP4","DECAY_DATE":null,"OBJECT_NAME":"STARLINK-2446","SITE":"AFETR","APOAPSIS":"548.413","MEAN_MOTION":"15.06393034","LAUNCH_DATE":"2021-03-11","PERIAPSIS":"546.057","GP_ID":"202936147","REF_FRAME":"TEME","CLASSIFICATION_TYPE":"U","NORAD_CAT_ID":"47844","ELEMENT_SET_NO":"999"},{"NORAD_CAT_ID":"47845","ELEMENT_SET_NO":"999","GP_ID":"202926132","CLASSIFICATION_TYPE":"U","REF_FRAME":"TEME","PERIAPSIS":"545.763","APOAPSIS":"548.619","MEAN_MOTION":"15.06407371","LAUNCH_DATE":"2021-03-11","SITE":"AFETR","TLE_LINE2":"2 47845  53.0565  66.1219 0002062  48.5750 311.5416 15.06407371 65262","MEAN_ELEMENT_THEORY":"SGP4","MEAN_MOTION_DDOT":"0.0000000000000","OBJECT_NAME":"STARLINK-2453","DECAY_DATE":null,"RA_OF_ASC_NODE":"66.1219","INCLINATION":"53.0565","COUNTRY_CODE":"US","MEAN_ANOMALY":"311.5416","ECCENTRICITY":"0.00020620","MEAN_MOTION_DOT":"0.00001175","CENTER_NAME":"EARTH","OBJECT_ID":"2021-018BL","FILE":"3433971","EPOCH":"2022-05-07T12:57:35.968896","TIME_SYSTEM":"UTC","PERIOD":"95.592","OBJECT_TYPE":"PAYLOAD","ARG_OF_PERICENTER":"48.5750","REV_AT_EPOCH":"6526","RCS_SIZE":"LARGE","TLE_LINE1":"1 47845U 21018BL  22127.53999964  .00001175  00000-0  97737-4 0  9999","SEMIMAJOR_AXIS":"6925.326","EPHEMERIS_TYPE":"0","BSTAR":"0.00009773700000"},{"PERIAPSIS":"546.019","APOAPSIS":"548.464","MEAN_MOTION":"15.06390810","LAUNCH_DATE":"2021-03-11","NORAD_CAT_ID":"47846","ELEMENT_SET_NO":"999","GP_ID":"202933041","CLASSIFICATION_TYPE":"U","REF_FRAME":"TEME","RA_OF_ASC_NODE":"64.9466","INCLINATION":"53.0565","SITE":"AFETR","TLE_LINE2":"2 47846  53.0565  64.9466 0001765  54.7000 305.4154 15.06390810 64965","MEAN_MOTION_DDOT":"0.0000000000000","MEAN_ELEMENT_THEORY":"SGP4","OBJECT_NAME":"STARLINK-2456","DECAY_DATE":null,"TIME_SYSTEM":"UTC","EPOCH":"2022-05-07T19:14:27.472704","PERIOD":"95.593","COUNTRY_CODE":"US","ECCENTRICITY":"0.00017650","MEAN_ANOMALY":"305.4154","MEAN_MOTION_DOT":"0.00001750","CENTER_NAME":"EARTH","OBJECT_ID":"2021-018BM","FILE":"3434161","TLE_LINE1":"1 47846U 21018BM  22127.80170686  .00001750  00000-0  13642-3 0  9993","SEMIMAJOR_AXIS":"6925.377","EPHEMERIS_TYPE":"0","BSTAR":"0.00013642000000","OBJECT_TYPE":"PAYLOAD","ARG_OF_PERICENTER":"54.7000","REV_AT_EPOCH":"6496","RCS_SIZE":"LARGE"},{"RA_OF_ASC_NODE":"95.8153","INCLINATION":"53.0546","SITE":"AFETR","MEAN_ELEMENT_THEORY":"SGP4","MEAN_MOTION_DDOT":"0.0000000000000","TLE_LINE2":"2 47860  53.0546  95.8153 0002040  60.1154 300.0037 15.06386709 64237","OBJECT_NAME":"STARLINK-2258","DECAY_DATE":null,"PERIAPSIS":"545.842","APOAPSIS":"548.667","LAUNCH_DATE":"2021-03-14","MEAN_MOTION":"15.06386709","ELEMENT_SET_NO":"999","NORAD_CAT_ID":"47860","GP_ID":"202939531","CLASSIFICATION_TYPE":"U","REF_FRAME":"TEME","SEMIMAJOR_AXIS":"6925.389","TLE_LINE1":"1 47860U 21021A   22127.60728227 -.00001168  00000-0 -59557-4 0  9992","BSTAR":"-0.00005955700000","EPHEMERIS_TYPE":"0","OBJECT_TYPE":"PAYLOAD","ARG_OF_PERICENTER":"60.1154","RCS_SIZE":"LARGE","REV_AT_EPOCH":"6423","EPOCH":"2022-05-07T14:34:29.188128","TIME_SYSTEM":"UTC","PERIOD":"95.593","ECCENTRICITY":"0.00020400","MEAN_ANOMALY":"300.0037","COUNTRY_CODE":"US","MEAN_MOTION_DOT":"-0.00001168","FILE":"3434446","OBJECT_ID":"2021-021A","CENTER_NAME":"EARTH"},{"TIME_SYSTEM":"UTC","EPOCH":"2022-05-07T13:24:47.915424","PERIOD":"95.592","COUNTRY_CODE":"US","ECCENTRICITY":"0.00015290","MEAN_ANOMALY":"303.2041","MEAN_MOTION_DOT":"0.00000743","CENTER_NAME":"EARTH","OBJECT_ID":"2021-021B","FILE":"3433971","TLE_LINE1":"1 47861U 21021B   22127.55888791  .00000743  00000-0  68794-4 0  9999","SEMIMAJOR_AXIS":"6925.334","EPHEMERIS_TYPE":"0","BSTAR":"0.00006879400000","OBJECT_TYPE":"PAYLOAD","ARG_OF_PERICENTER":"56.9095","REV_AT_EPOCH":"6493","RCS_SIZE":"LARGE","PERIAPSIS":"546.140","APOAPSIS":"548.258","MEAN_MOTION":"15.06404726","LAUNCH_DATE":"2021-03-14","NORAD_CAT_ID":"47861","ELEMENT_SET_NO":"999","GP_ID":"202925634","CLASSIFICATION_TYPE":"U","REF_FRAME":"TEME","RA_OF_ASC_NODE":"81.0309","INCLINATION":"53.0542","SITE":"AFETR","TLE_LINE2":"2 47861  53.0542  81.0309 0001529  56.9095 303.2041 15.06404726 64939","MEAN_MOTION_DDOT":"0.0000000000000","MEAN_ELEMENT_THEORY":"SGP4","OBJECT_NAME":"STARLINK-2280","DECAY_DATE":null},{"EPHEMERIS_TYPE":"0","BSTAR":"0.00004270700000","TLE_LINE1":"1 47862U 21021C   22127.14100155  .00000354  00000-0  42707-4 0  9990","SEMIMAJOR_AXIS":"6925.363","REV_AT_EPOCH":"6493","RCS_SIZE":"LARGE","ARG_OF_PERICENTER":"67.6588","OBJECT_TYPE":"PAYLOAD","PERIOD":"95.592","EPOCH":"2022-05-07T03:23:02.533920","TIME_SYSTEM":"UTC","CENTER_NAME":"EARTH","OBJECT_ID":"2021-021C","FILE":"3433971","MEAN_MOTION_DOT":"0.00000354","COUNTRY_CODE":"US","MEAN_ANOMALY":"292.4586","ECCENTRICITY":"0.00017530","INCLINATION":"53.0562","RA_OF_ASC_NODE":"77.9133","DECAY_DATE":null,"OBJECT_NAME":"STARLINK-2291","TLE_LINE2":"2 47862  53.0562  77.9133 0001753  67.6588 292.4586 15.06395268 64939","MEAN_MOTION_DDOT":"0.0000000000000","MEAN_ELEMENT_THEORY":"SGP4","SITE":"AFETR","MEAN_MOTION":"15.06395268","LAUNCH_DATE":"2021-03-14","APOAPSIS":"548.442","PERIAPSIS":"546.014","REF_FRAME":"TEME","CLASSIFICATION_TYPE":"U","GP_ID":"202926382","NORAD_CAT_ID":"47862","ELEMENT_SET_NO":"999"},{"NORAD_CAT_ID":"47863","ELEMENT_SET_NO":"999","GP_ID":"202925133","REF_FRAME":"TEME","CLASSIFICATION_TYPE":"U","PERIAPSIS":"545.928","APOAPSIS":"548.486","MEAN_MOTION":"15.06402135","LAUNCH_DATE":"2021-03-14","SITE":"AFETR","TLE_LINE2":"2 47863  53.0564  87.8045 0001847  53.1648 306.9510 15.06402135 64801","MEAN_MOTION_DDOT":"0.0000000000000","MEAN_ELEMENT_THEORY":"SGP4","OBJECT_NAME":"STARLINK-2293","DECAY_DATE":null,"RA_OF_ASC_NODE":"87.8045","INCLINATION":"53.0564","COUNTRY_CODE":"US","ECCENTRICITY":"0.00018470","MEAN_ANOMALY":"306.9510","MEAN_MOTION_DOT":"-0.00000241","CENTER_NAME":"EARTH","OBJECT_ID":"2021-021D","FILE":"3433971","TIME_SYSTEM":"UTC","EPOCH":"2022-05-07T03:58:52.015584","PERIOD":"95.592","OBJECT_TYPE":"PAYLOAD","ARG_OF_PERICENTER":"53.1648","REV_AT_EPOCH":"6480","RCS_SIZE":"LARGE","TLE_LINE1":"1 47863U 21021D   22127.16587981 -.00000241  00000-0  27114-5 0  9991","SEMIMAJOR_AXIS":"6925.342","EPHEMERIS_TYPE":"0","BSTAR":"0.00000271140000"},{"GP_ID":"202925382","CLASSIFICATION_TYPE":"U","REF_FRAME":"TEME","ELEMENT_SET_NO":"999","NORAD_CAT_ID":"47864","APOAPSIS":"548.499","LAUNCH_DATE":"2021-03-14","MEAN_MOTION":"15.06391968","PERIAPSIS":"545.978","MEAN_ELEMENT_THEORY":"SGP4","MEAN_MOTION_DDOT":"0.0000000000000","TLE_LINE2":"2 47864  53.0563  77.9159 0001820  63.5119 296.6057 15.06391968 64910","DECAY_DATE":null,"OBJECT_NAME":"STARLINK-2304","SITE":"AFETR","RA_OF_ASC_NODE":"77.9159","INCLINATION":"53.0563","OBJECT_ID":"2021-021E","FILE":"3433971","CENTER_NAME":"EARTH","MEAN_ANOMALY":"296.6057","ECCENTRICITY":"0.00018200","COUNTRY_CODE":"US","MEAN_MOTION_DOT":"-0.00000934","PERIOD":"95.593","EPOCH":"2022-05-07T03:21:41.564160","TIME_SYSTEM":"UTC","RCS_SIZE":"LARGE","REV_AT_EPOCH":"6491","OBJECT_TYPE":"PAYLOAD","ARG_OF_PERICENTER":"63.5119","SEMIMAJOR_AXIS":"6925.373","TLE_LINE1":"1 47864U 21021E   22127.14006440 -.00000934  00000-0 -43799-4 0  9992","BSTAR":"-0.00004379900000","EPHEMERIS_TYPE":"0"},{"MEAN_MOTION_DOT":"-0.00000053","COUNTRY_CODE":"US","ECCENTRICITY":"0.00019870","MEAN_ANOMALY":"299.6081","CENTER_NAME":"EARTH","FILE":"3434440","OBJECT_ID":"2021-021F","TIME_SYSTEM":"UTC","EPOCH":"2022-05-07T14:30:29.840256","PERIOD":"95.593","ARG_OF_PERICENTER":"60.5106","OBJECT_TYPE":"PAYLOAD","REV_AT_EPOCH":"6439","RCS_SIZE":"LARGE","EPHEMERIS_TYPE":"0","BSTAR":"0.00001533500000","TLE_LINE1":"1 47865U 21021F   22127.60451204 -.00000053  00000-0  15335-4 0  9992","SEMIMAJOR_AXIS":"6925.368","NORAD_CAT_ID":"47865","ELEMENT_SET_NO":"999","CLASSIFICATION_TYPE":"U","REF_FRAME":"TEME","GP_ID":"202939633","PERIAPSIS":"545.856","MEAN_MOTION":"15.06393811","LAUNCH_DATE":"2021-03-14","APOAPSIS":"548.609","SITE":"AFETR","DECAY_DATE":null,"OBJECT_NAME":"STARLINK-2310","TLE_LINE2":"2 47865  53.0562  85.8165 0001987  60.5106 299.6081 15.06393811 64393","MEAN_ELEMENT_THEORY":"SGP4","MEAN_MOTION_DDOT":"0.0000000000000","INCLINATION":"53.0562","RA_OF_ASC_NODE":"85.8165"},{"APOAPSIS":"548.641","MEAN_MOTION":"15.06397599","LAUNCH_DATE":"2021-03-14","PERIAPSIS":"545.801","GP_ID":"202925883","CLASSIFICATION_TYPE":"U","REF_FRAME":"TEME","NORAD_CAT_ID":"47866","ELEMENT_SET_NO":"999","RA_OF_ASC_NODE":"86.7146","INCLINATION":"53.0565","TLE_LINE2":"2 47866  53.0565  86.7146 0002051  47.2150 312.9011 15.06397599 64995","MEAN_MOTION_DDOT":"0.0000000000000","MEAN_ELEMENT_THEORY":"SGP4","DECAY_DATE":null,"OBJECT_NAME":"STARLINK-2320","SITE":"AFETR","PERIOD":"95.592","TIME_SYSTEM":"UTC","EPOCH":"2022-05-07T09:49:10.959168","CENTER_NAME":"EARTH","OBJECT_ID":"2021-021G","FILE":"3433971","COUNTRY_CODE":"US","MEAN_ANOMALY":"312.9011","ECCENTRICITY":"0.00020510","MEAN_MOTION_DOT":"-0.00000541","TLE_LINE1":"1 47866U 21021G   22127.40915462 -.00000541  00000-0 -17434-4 0  9997","SEMIMAJOR_AXIS":"6925.356","EPHEMERIS_TYPE":"0","BSTAR":"-0.00001743400000","REV_AT_EPOCH":"6499","RCS_SIZE":"LARGE","OBJECT_TYPE":"PAYLOAD","ARG_OF_PERICENTER":"47.2150"}];
